FLOCK 4H-16             
1 66719U 25276BF  26198.76945378  .00003271  00000+0  15429-3 0  9992
2 66719  97.4223 271.8670 0002897 243.4541 116.6397 15.20167957 35068
FLOCK 4H-18             
1 66721U 25276BH  26198.77572035  .00003260  00000+0  15406-3 0  9995
2 66721  97.4164 271.6845 0002197 276.0999  83.9986 15.20110286 35062
FLOCK 4H-19             
1 66722U 25276BJ  26198.50987012  .00002825  00000+0  12939-3 0  9996
2 66722  97.4168 271.8898 0002544 144.6512 215.4893 15.21298756 34343
FLOCK 4H-20             
1 66723U 25276BK  26198.51176963  .00003232  00000+0  14689-3 0  9990
2 66723  97.4203 271.9993 0003117 164.4665 195.6667 15.21462083 34307
FLOCK 4H-21             
1 66724U 25276BL  26198.67533222  .00003231  00000+0  14863-3 0  9996
2 66724  97.4169 271.9819 0002954 162.2403 197.8937 15.21046661 34326
FLOCK 4H-22             
1 66725U 25276BM  26198.91813841  .00003613  00000+0  16826-3 0  9997
2 66725  97.4159 271.9294 0001016 271.8906  88.2213 15.20544168 35095
FLOCK 4H-23             
1 66726U 25276BN  26198.64343881  .00003213  00000+0  15195-3 0  9994
2 66726  97.4229 271.7443 0003170 231.9386 128.1563 15.20087731 35045
FLOCK 4H-24             
1 66727U 25276BP  26198.95716379  .00003822  00000+0  17959-3 0  9991
2 66727  97.4223 272.0822 0002497 250.5457 109.5509 15.20200316 35096
FLOCK 4H-25             
1 66728U 25276BQ  26198.95710424  .00003916  00000+0  17987-3 0  9992
2 66728  97.4180 272.2509 0001988 125.0718 235.0705 15.20966741 34399
FLOCK 4H-26             
1 66729U 25276BR  26198.92526483  .00003381  00000+0  16051-3 0  9997
2 66729  97.4177 271.8299 0003305 251.4927 108.5949 15.19923177 35083
FLOCK 4H-27             
1 66730U 25276BS  26198.79064768  .00003221  00000+0  14928-3 0  9991
2 66730  97.4156 271.9389 0001671 126.8605 233.2784 15.20788217 35084
FLOCK 4H-29             
1 66732U 25276BU  26198.64122777  .00003203  00000+0  15162-3 0  9993
2 66732  97.4158 271.5329 0001697 266.7654  93.3387 15.20060735 35042
FLOCK 4H-30             
1 66733U 25276BV  26198.63293336  .00003381  00000+0  15929-3 0  9991
2 66733  97.4220 271.7345 0002699 252.4822 107.6118 15.20182951 35041
FLOCK 4H-31             
1 66734U 25276BW  26198.91760376  .00003037  00000+0  14437-3 0  9997
2 66734  97.4155 271.7714 0002116 260.9549  99.1446 15.19959848 35081
FLOCK 4H-32             
1 66735U 25276BX  26198.77364115  .00003035  00000+0  14374-3 0  9991
2 66735  97.4212 271.8285 0003135 248.6339 111.4562 15.20078389 35061
FLOCK 4H-33             
1 66736U 25276BY  26198.92724500  .00003259  00000+0  14920-3 0  9992
2 66736  97.4207 272.3772 0002922 155.0714 205.0664 15.21208106 35116
