{"fetched_at":"2026-07-18T06:27:47.409Z","source":"https://celestrak.org/NORAD/elements/gp.php?GROUP=planet&FORMAT=JSON","constellation":"superdove","records":[{"OBJECT_NAME":"FLOCK 4H-16","OBJECT_ID":"2025-276BF","EPOCH":"2026-07-17T18:28:00.806592","CLASSIFICATION_TYPE":"U","MEAN_MOTION":15.20167957,"ECCENTRICITY":0.00028979,"INCLINATION":97.4223,"RA_OF_ASC_NODE":271.867,"ARG_OF_PERICENTER":243.4541,"MEAN_ANOMALY":116.6397,"EPHEMERIS_TYPE":0,"NORAD_CAT_ID":66719,"ELEMENT_SET_NO":999,"REV_AT_EPOCH":3506,"BSTAR":0.00015428732,"MEAN_MOTION_DOT":0.00003271,"MEAN_MOTION_DDOT":0},{"OBJECT_NAME":"FLOCK 4H-18","OBJECT_ID":"2025-276BH","EPOCH":"2026-07-17T18:37:02.238240","CLASSIFICATION_TYPE":"U","MEAN_MOTION":15.20110286,"ECCENTRICITY":0.00021979,"INCLINATION":97.4164,"RA_OF_ASC_NODE":271.6845,"ARG_OF_PERICENTER":276.0999,"MEAN_ANOMALY":83.9986,"EPHEMERIS_TYPE":0,"NORAD_CAT_ID":66721,"ELEMENT_SET_NO":999,"REV_AT_EPOCH":3506,"BSTAR":0.00015406083,"MEAN_MOTION_DOT":0.0000326,"MEAN_MOTION_DDOT":0},{"OBJECT_NAME":"FLOCK 4H-19","OBJECT_ID":"2025-276BJ","EPOCH":"2026-07-17T12:14:12.778368","CLASSIFICATION_TYPE":"U","MEAN_MOTION":15.21298756,"ECCENTRICITY":0.0002544,"INCLINATION":97.4168,"RA_OF_ASC_NODE":271.8898,"ARG_OF_PERICENTER":144.6512,"MEAN_ANOMALY":215.4893,"EPHEMERIS_TYPE":0,"NORAD_CAT_ID":66722,"ELEMENT_SET_NO":999,"REV_AT_EPOCH":3434,"BSTAR":0.00012939,"MEAN_MOTION_DOT":0.00002825,"MEAN_MOTION_DDOT":0},{"OBJECT_NAME":"FLOCK 4H-20","OBJECT_ID":"2025-276BK","EPOCH":"2026-07-17T12:16:56.896032","CLASSIFICATION_TYPE":"U","MEAN_MOTION":15.21462083,"ECCENTRICITY":0.0003117,"INCLINATION":97.4203,"RA_OF_ASC_NODE":271.9993,"ARG_OF_PERICENTER":164.4665,"MEAN_ANOMALY":195.6667,"EPHEMERIS_TYPE":0,"NORAD_CAT_ID":66723,"ELEMENT_SET_NO":999,"REV_AT_EPOCH":3430,"BSTAR":0.00014689,"MEAN_MOTION_DOT":0.00003232,"MEAN_MOTION_DDOT":0},{"OBJECT_NAME":"FLOCK 4H-21","OBJECT_ID":"2025-276BL","EPOCH":"2026-07-17T16:12:28.703808","CLASSIFICATION_TYPE":"U","MEAN_MOTION":15.21046661,"ECCENTRICITY":0.00029546,"INCLINATION":97.4169,"RA_OF_ASC_NODE":271.9819,"ARG_OF_PERICENTER":162.2403,"MEAN_ANOMALY":197.8937,"EPHEMERIS_TYPE":0,"NORAD_CAT_ID":66724,"ELEMENT_SET_NO":999,"REV_AT_EPOCH":3432,"BSTAR":0.00014862938,"MEAN_MOTION_DOT":0.00003231,"MEAN_MOTION_DDOT":0},{"OBJECT_NAME":"FLOCK 4H-22","OBJECT_ID":"2025-276BM","EPOCH":"2026-07-17T22:02:07.158624","CLASSIFICATION_TYPE":"U","MEAN_MOTION":15.20544168,"ECCENTRICITY":0.00010164,"INCLINATION":97.4159,"RA_OF_ASC_NODE":271.9294,"ARG_OF_PERICENTER":271.8906,"MEAN_ANOMALY":88.2213,"EPHEMERIS_TYPE":0,"NORAD_CAT_ID":66725,"ELEMENT_SET_NO":999,"REV_AT_EPOCH":3509,"BSTAR":0.00016825988,"MEAN_MOTION_DOT":0.00003613,"MEAN_MOTION_DDOT":0},{"OBJECT_NAME":"FLOCK 4H-23","OBJECT_ID":"2025-276BN","EPOCH":"2026-07-17T15:26:33.113184","CLASSIFICATION_TYPE":"U","MEAN_MOTION":15.20087731,"ECCENTRICITY":0.00031708,"INCLINATION":97.4229,"RA_OF_ASC_NODE":271.7443,"ARG_OF_PERICENTER":231.9386,"MEAN_ANOMALY":128.1563,"EPHEMERIS_TYPE":0,"NORAD_CAT_ID":66726,"ELEMENT_SET_NO":999,"REV_AT_EPOCH":3504,"BSTAR":0.00015194655,"MEAN_MOTION_DOT":0.00003213,"MEAN_MOTION_DDOT":0},{"OBJECT_NAME":"FLOCK 4H-24","OBJECT_ID":"2025-276BP","EPOCH":"2026-07-17T22:58:18.951456","CLASSIFICATION_TYPE":"U","MEAN_MOTION":15.20200316,"ECCENTRICITY":0.0002497,"INCLINATION":97.4223,"RA_OF_ASC_NODE":272.0822,"ARG_OF_PERICENTER":250.5457,"MEAN_ANOMALY":109.5509,"EPHEMERIS_TYPE":0,"NORAD_CAT_ID":66727,"ELEMENT_SET_NO":999,"REV_AT_EPOCH":3509,"BSTAR":0.00017958921,"MEAN_MOTION_DOT":0.00003822,"MEAN_MOTION_DDOT":0},{"OBJECT_NAME":"FLOCK 4H-25","OBJECT_ID":"2025-276BQ","EPOCH":"2026-07-17T22:58:13.806336","CLASSIFICATION_TYPE":"U","MEAN_MOTION":15.20966741,"ECCENTRICITY":0.00019887,"INCLINATION":97.418,"RA_OF_ASC_NODE":272.2509,"ARG_OF_PERICENTER":125.0718,"MEAN_ANOMALY":235.0705,"EPHEMERIS_TYPE":0,"NORAD_CAT_ID":66728,"ELEMENT_SET_NO":999,"REV_AT_EPOCH":3439,"BSTAR":0.00017986934,"MEAN_MOTION_DOT":0.00003916,"MEAN_MOTION_DDOT":0},{"OBJECT_NAME":"FLOCK 4H-26","OBJECT_ID":"2025-276BR","EPOCH":"2026-07-17T22:12:22.881312","CLASSIFICATION_TYPE":"U","MEAN_MOTION":15.19923177,"ECCENTRICITY":0.00033059,"INCLINATION":97.4177,"RA_OF_ASC_NODE":271.8299,"ARG_OF_PERICENTER":251.4927,"MEAN_ANOMALY":108.5949,"EPHEMERIS_TYPE":0,"NORAD_CAT_ID":66729,"ELEMENT_SET_NO":999,"REV_AT_EPOCH":3508,"BSTAR":0.00016051231,"MEAN_MOTION_DOT":0.00003381,"MEAN_MOTION_DDOT":0},{"OBJECT_NAME":"FLOCK 4H-27","OBJECT_ID":"2025-276BS","EPOCH":"2026-07-17T18:58:31.959552","CLASSIFICATION_TYPE":"U","MEAN_MOTION":15.20788217,"ECCENTRICITY":0.00016712,"INCLINATION":97.4156,"RA_OF_ASC_NODE":271.9389,"ARG_OF_PERICENTER":126.8605,"MEAN_ANOMALY":233.2784,"EPHEMERIS_TYPE":0,"NORAD_CAT_ID":66730,"ELEMENT_SET_NO":999,"REV_AT_EPOCH":3508,"BSTAR":0.00014927926,"MEAN_MOTION_DOT":0.00003221,"MEAN_MOTION_DDOT":0},{"OBJECT_NAME":"FLOCK 4H-29","OBJECT_ID":"2025-276BU","EPOCH":"2026-07-17T15:23:22.079328","CLASSIFICATION_TYPE":"U","MEAN_MOTION":15.20060735,"ECCENTRICITY":0.00016976,"INCLINATION":97.4158,"RA_OF_ASC_NODE":271.5329,"ARG_OF_PERICENTER":266.7654,"MEAN_ANOMALY":93.3387,"EPHEMERIS_TYPE":0,"NORAD_CAT_ID":66732,"ELEMENT_SET_NO":999,"REV_AT_EPOCH":3504,"BSTAR":0.00015162463,"MEAN_MOTION_DOT":0.00003203,"MEAN_MOTION_DDOT":0},{"OBJECT_NAME":"FLOCK 4H-30","OBJECT_ID":"2025-276BV","EPOCH":"2026-07-17T15:11:25.442304","CLASSIFICATION_TYPE":"U","MEAN_MOTION":15.20182951,"ECCENTRICITY":0.0002699,"INCLINATION":97.422,"RA_OF_ASC_NODE":271.7345,"ARG_OF_PERICENTER":252.4822,"MEAN_ANOMALY":107.6118,"EPHEMERIS_TYPE":0,"NORAD_CAT_ID":66733,"ELEMENT_SET_NO":999,"REV_AT_EPOCH":3504,"BSTAR":0.00015929,"MEAN_MOTION_DOT":0.00003381,"MEAN_MOTION_DDOT":0},{"OBJECT_NAME":"FLOCK 4H-31","OBJECT_ID":"2025-276BW","EPOCH":"2026-07-17T22:01:20.964864","CLASSIFICATION_TYPE":"U","MEAN_MOTION":15.19959848,"ECCENTRICITY":0.0002116,"INCLINATION":97.4155,"RA_OF_ASC_NODE":271.7714,"ARG_OF_PERICENTER":260.9549,"MEAN_ANOMALY":99.1446,"EPHEMERIS_TYPE":0,"NORAD_CAT_ID":66734,"ELEMENT_SET_NO":999,"REV_AT_EPOCH":3508,"BSTAR":0.00014436867,"MEAN_MOTION_DOT":0.00003037,"MEAN_MOTION_DDOT":0},{"OBJECT_NAME":"FLOCK 4H-32","OBJECT_ID":"2025-276BX","EPOCH":"2026-07-17T18:34:02.595360","CLASSIFICATION_TYPE":"U","MEAN_MOTION":15.20078389,"ECCENTRICITY":0.00031351,"INCLINATION":97.4212,"RA_OF_ASC_NODE":271.8285,"ARG_OF_PERICENTER":248.6339,"MEAN_ANOMALY":111.4562,"EPHEMERIS_TYPE":0,"NORAD_CAT_ID":66735,"ELEMENT_SET_NO":999,"REV_AT_EPOCH":3506,"BSTAR":0.0001437415,"MEAN_MOTION_DOT":0.00003035,"MEAN_MOTION_DDOT":0},{"OBJECT_NAME":"FLOCK 4H-33","OBJECT_ID":"2025-276BY","EPOCH":"2026-07-17T22:15:13.968000","CLASSIFICATION_TYPE":"U","MEAN_MOTION":15.21208106,"ECCENTRICITY":0.00029227,"INCLINATION":97.4207,"RA_OF_ASC_NODE":272.3772,"ARG_OF_PERICENTER":155.0714,"MEAN_ANOMALY":205.0664,"EPHEMERIS_TYPE":0,"NORAD_CAT_ID":66736,"ELEMENT_SET_NO":999,"REV_AT_EPOCH":3511,"BSTAR":0.00014920434,"MEAN_MOTION_DOT":0.00003259,"MEAN_MOTION_DDOT":0}]}
